[{"OBJECT_NAME":"AJISAI (EGS)","OBJECT_ID":"1986-061A","EPOCH":"2026-03-09T23:02:01.063392","MEAN_MOTION":12.44515635,"ECCENTRICITY":0.00112705,"INCLINATION":50.0087,"RA_OF_ASC_NODE":92.5172,"ARG_OF_PERICENTER":287.6933,"MEAN_ANOMALY":156.5252,"EPHEMERIS_TYPE":0,"CLASSIFICATION_TYPE":"U","NORAD_CAT_ID":16908,"ELEMENT_SET_NO":999,"REV_AT_EPOCH":46803,"BSTAR":-1.6605877e-5,"MEAN_MOTION_DOT":-1.0e-6,"MEAN_MOTION_DDOT":0},{"OBJECT_NAME":"GLOBALSTAR M062","OBJECT_ID":"2000-008B","EPOCH":"2026-03-09T09:44:47.750208","MEAN_MOTION":12.43481346,"ECCENTRICITY":0.00072904,"INCLINATION":51.9868,"RA_OF_ASC_NODE":35.8385,"ARG_OF_PERICENTER":321.6772,"MEAN_ANOMALY":211.4326,"EPHEMERIS_TYPE":0,"CLASSIFICATION_TYPE":"U","NORAD_CAT_ID":26082,"ELEMENT_SET_NO":999,"REV_AT_EPOCH":52961,"BSTAR":0.00042383965,"MEAN_MOTION_DOT":-3.9e-7,"MEAN_MOTION_DDOT":0}]
